NORAD_CAT_ID,OBJECT_NAME,OBJECT_TYPE,EPOCH,MEAN_MOTION,ECCENTRICITY,INCLINATION,RA_OF_ASC_NODE,ARG_OF_PERICENTER,MEAN_ANOMALY,BSTAR,MEAN_MOTION_DOT,MEAN_MOTION_DDOT,TLE_LINE0,TLE_LINE1,TLE_LINE2,SEMIMAJOR_AXIS,PERIOD,APOGEE,PERIGEE,DECAYED
51728.0,STARLINK-3448,PAYLOAD,2024-07-03 18:16:09,15.08849866,0.0001352,53.2137,195.1524,93.1868,266.9279,1.8342e-05,4e-08,0.0,0 STARLINK-3448,1 51728U 22016Q   24185.76121868  .00000004  00000-0  18342-4 0  9999,2 51728  53.2137 195.1524 0001352  93.1868 266.9279 15.08849866130885,6917.85,95.437,540.651,538.78,0.0
51728.0,STARLINK-3448,PAYLOAD,2024-07-04 03:48:28,15.08841335,0.0001381,53.2154,193.3688,94.504,265.611,3.6921e-05,3e-06,0.0,0 STARLINK-3448,1 51728U 22016Q   24186.15866385  .00000300  00000-0  36921-4 0  9995,2 51728  53.2154 193.3688 0001381  94.5040 265.6110 15.08841335132070,6917.876,95.437,540.697,538.786,0.0
51728.0,STARLINK-3448,PAYLOAD,2024-07-04 06:59:14,15.088415,0.0001375,53.2153,192.7739,94.9232,265.1917,3.0001e-05,1.9e-06,0.0,0 STARLINK-3448,1 51728U 22016Q   24186.29114306  .00000190  00000-0  30001-4 0  9999,2 51728  53.2153 192.7739 0001375  94.9232 265.1917 15.08841500130969,6917.876,95.437,540.692,538.79,0.0
51728.0,STARLINK-3448,PAYLOAD,2024-07-05 05:14:38,15.08841158,0.0001398,53.2156,188.6101,96.6939,263.4212,3.9532e-05,3.41e-06,0.0,0 STARLINK-3448,1 51728U 22016Q   24187.21850110  .00000341  00000-0  39532-4 0  9998,2 51728  53.2156 188.6101 0001398  96.6939 263.4212 15.08841158132237,6917.877,95.437,540.709,538.775,0.0
51728.0,STARLINK-3448,PAYLOAD,2024-07-05 10:00:47,15.08841073,0.0001393,53.2156,187.7189,93.2728,266.8424,4.4227e-05,4.16e-06,0.0,0 STARLINK-3448,1 51728U 22016Q   24187.41722082  .00000416  00000-0  44227-4 0  9996,2 51728  53.2156 187.7189 0001393  93.2728 266.8424 15.08841073131133,6917.877,95.437,540.706,538.778,0.0
51728.0,STARLINK-3448,PAYLOAD,2024-07-06 05:05:25,15.08833846,0.0001289,53.215,184.1502,91.2431,268.8709,3.6891e-05,2.99e-06,0.0,0 STARLINK-3448,1 51728U 22016Q   24188.21210607  .00000299  00000-0  36891-4 0  9997,2 51728  53.2150 184.1502 0001289  91.2431 268.8709 15.08833846132385,6917.899,95.438,540.656,538.872,0.0
51728.0,STARLINK-3448,PAYLOAD,2024-07-06 09:51:35,15.08834951,0.0001266,53.2149,183.2575,90.3554,269.7584,1.7804e-05,-5e-08,0.0,0 STARLINK-3448,1 51728U 22016Q   24188.41082622 -.00000005  00000-0  17804-4 0  9992,2 51728  53.2149 183.2575 0001266  90.3554 269.7584 15.08834951131281,6917.896,95.438,540.637,538.885,0.0
51728.0,STARLINK-3448,PAYLOAD,2024-07-06 16:13:07,15.08837886,0.0001299,53.2153,182.0684,90.7363,269.3778,3.4326e-05,2.58e-06,0.0,0 STARLINK-3448,1 51728U 22016Q   24188.67578364  .00000258  00000-0  34326-4 0  9990,2 51728  53.2153 182.0684 0001299  90.7363 269.3778 15.08837886131328,6917.887,95.438,540.65,538.853,0.0
51728.0,STARLINK-3448,PAYLOAD,2024-07-07 06:31:36,15.08836841,0.0001399,53.2164,179.3926,91.643,268.4723,2.9222e-05,1.77e-06,0.0,0 STARLINK-3448,1 51728U 22016Q   24189.27194626  .00000177  00000-0  29222-4 0  9991,2 51728  53.2164 179.3926 0001399  91.6430 268.4723 15.08836841132549,6917.89,95.438,540.723,538.787,0.0
51728.0,STARLINK-3448,PAYLOAD,2024-07-08 09:33:09,15.08836052,0.0001387,53.2161,174.3378,93.7192,266.3958,6.5743e-05,7.58e-06,0.0,0 STARLINK-3448,1 51728U 22016Q   24190.39802814  .00000758  00000-0  65743-4 0  9994,2 51728  53.2161 174.3378 0001387  93.7192 266.3958 15.08836052132717,6917.892,95.438,540.717,538.798,0.0
51728.0,STARLINK-3448,PAYLOAD,2024-07-08 15:54:42,15.08837189,0.0001377,53.2161,173.1483,92.8832,267.2318,5.1891e-05,5.38e-06,0.0,0 STARLINK-3448,1 51728U 22016Q   24190.66298860  .00000538  00000-0  51891-4 0  9999,2 51728  53.2161 173.1483 0001377  92.8832 267.2318 15.08837189131622,6917.889,95.438,540.707,538.801,0.0
51728.0,STARLINK-3448,PAYLOAD,2024-07-09 07:48:33,15.08837987,0.0001405,53.216,170.1747,91.9577,268.1576,5.0948e-05,5.23e-06,0.0,0 STARLINK-3448,1 51728U 22016Q   24191.32538974  .00000523  00000-0  50948-4 0  9992,2 51728  53.2160 170.1747 0001405  91.9577 268.1576 15.08837987131722,6917.887,95.438,540.724,538.78,0.0
51728.0,STARLINK-3448,PAYLOAD,2024-07-10 04:28:34,15.08837858,0.0001447,53.2161,166.309,90.3688,269.747,4.2282e-05,3.85e-06,0.0,0 STARLINK-3448,1 51728U 22016Q   24192.18651162  .00000385  00000-0  42282-4 0  9990,2 51728  53.2161 166.3090 0001447  90.3688 269.7470 15.08837858132989,6917.887,95.438,540.753,538.751,0.0
51728.0,STARLINK-3448,PAYLOAD,2024-07-10 06:03:57,15.08837837,0.000142,53.2159,166.0114,89.637,270.4785,4.0866e-05,3.62e-06,0.0,0 STARLINK-3448,1 51728U 22016Q   24192.25275169  .00000362  00000-0  40866-4 0  9998,2 51728  53.2159 166.0114 0001420  89.6370 270.4785 15.08837837131861,6917.887,95.438,540.734,538.77,0.0
51728.0,STARLINK-3448,PAYLOAD,2024-07-10 15:36:16,15.08841171,0.0001414,53.2159,164.2272,89.2496,270.8658,6.0587e-05,6.76e-06,0.0,0 STARLINK-3448,1 51728U 22016Q   24192.65018913  .00000676  00000-0  60587-4 0  9994,2 51728  53.2159 164.2272 0001414  89.2496 270.8658 15.08841171131920,6917.877,95.437,540.72,538.764,0.0
51728.0,STARLINK-3448,PAYLOAD,2024-07-11 04:19:21,15.08838649,0.0001444,53.2161,161.8477,92.1663,267.9494,4.1109e-05,3.66e-06,0.0,0 STARLINK-3448,1 51728U 22016Q   24193.18011190  .00000366  00000-0  41109-4 0  9998,2 51728  53.2161 161.8477 0001444  92.1663 267.9494 15.08838649132006,6917.885,95.438,540.748,538.751,0.0
51728.0,STARLINK-3448,PAYLOAD,2024-07-12 04:10:08,15.08840407,0.000149,53.2166,157.3865,94.4791,265.6371,4.3808e-05,4.09e-06,0.0,0 STARLINK-3448,1 51728U 22016Q   24194.17371002  .00000409  00000-0  43808-4 0  9995,2 51728  53.2166 157.3865 0001490  94.4791 265.6371 15.08840407133285,6917.879,95.438,540.775,538.713,0.0
51728.0,STARLINK-3448,PAYLOAD,2024-07-13 04:00:55,15.08835771,0.0001458,53.2169,152.925,96.3952,263.7206,2.276e-05,7.4e-07,0.0,0 STARLINK-3448,1 51728U 22016Q   24195.16731393  .00000074  00000-0  22760-4 0  9990,2 51728  53.2169 152.9250 0001458  96.3952 263.7206 15.08835771133432,6917.893,95.438,540.767,538.75,0.0
51728.0,STARLINK-3448,PAYLOAD,2024-07-13 21:30:10,15.08837203,0.0001264,53.2162,149.6554,93.7359,266.3778,4.1252e-05,3.69e-06,0.0,0 STARLINK-3448,1 51728U 22016Q   24195.89595360  .00000369  00000-0  41252-4 0  9996,2 51728  53.2162 149.6554 0001264  93.7359 266.3778 15.08837203132414,6917.889,95.438,540.628,538.88,0.0
51728.0,STARLINK-3448,PAYLOAD,2024-07-14 13:24:00,15.0884971,0.0001334,53.2174,146.6836,94.5125,265.602,0.00010923,1.451e-05,0.0,0 STARLINK-3448,1 51728U 22016Q   24196.55834358  .00001451  00000-0  10923-3 0  9996,2 51728  53.2174 146.6836 0001334  94.5125 265.6020 15.08849710133649,6917.851,95.437,540.639,538.793,0.0
51728.0,STARLINK-3448,PAYLOAD,2024-07-15 03:42:30,15.08833562,0.0001304,53.2167,144.0089,96.1471,263.967,5.4132e-05,5.74e-06,0.0,0 STARLINK-3448,1 51728U 22016Q   24197.15451747  .00000574  00000-0  54132-4 0  9996,2 51728  53.2167 144.0089 0001304  96.1471 263.9670 15.08833562133732,6917.9,95.438,540.667,538.863,0.0
51728.0,STARLINK-3448,PAYLOAD,2024-07-15 13:14:48,15.08848327,0.0001221,53.2169,142.2225,88.7723,271.3409,0.00016768,2.382e-05,0.0,0 STARLINK-3448,1 51728U 22016Q   24197.55194556  .00002382  00000-0  16768-3 0  9993,2 51728  53.2169 142.2225 0001221  88.7723 271.3409 15.08848327133795,6917.855,95.437,540.565,538.875,0.0
51728.0,STARLINK-3448,PAYLOAD,2024-07-15 21:11:45,15.0882963,0.0001599,53.2178,140.7367,95.4403,264.6771,-3.4828e-05,-8.42e-06,0.0,0 STARLINK-3448,1 51728U 22016Q   24197.88316371 -.00000842  00000-0 -34828-4 0  9999,2 51728  53.2178 140.7367 0001599  95.4403 264.6771 15.08829630133842,6917.912,95.438,540.883,538.671,0.0
51728.0,STARLINK-3448,PAYLOAD,2024-07-16 05:08:40,15.08841122,0.0001467,53.2168,139.2492,96.7135,263.4024,7.3442e-05,8.81e-06,0.0,0 STARLINK-3448,1 51728U 22016Q   24198.21435533  .00000881  00000-0  73442-4 0  9995,2 51728  53.2168 139.2492 0001467  96.7135 263.4024 15.08841122133896,6917.877,95.437,540.757,538.727,0.0
51728.0,STARLINK-3448,PAYLOAD,2024-07-17 12:56:21,15.08864758,0.0001523,53.2166,133.2991,66.5207,293.5945,0.00017503,2.501e-05,0.0,0 STARLINK-3448,1 51728U 22016Q   24199.53913569  .00002501  00000-0  17503-3 0  9997,2 51728  53.2166 133.2991 0001523  66.5207 293.5945 15.08864758134099,6917.805,95.436,540.723,538.616,0.0
51728.0,STARLINK-3448,PAYLOAD,2024-07-18 03:14:51,15.08830619,0.0001753,53.216,130.6235,78.3904,281.7285,-5.1254e-05,-1.103e-05,0.0,0 STARLINK-3448,1 51728U 22016Q   24200.13532082 -.00001103  00000-0 -51254-4 0  9994,2 51728  53.2160 130.6235 0001753  78.3904 281.7285 15.08830619134180,6917.909,95.438,540.987,538.561,0.0
51728.0,STARLINK-3448,PAYLOAD,2024-07-18 12:47:09,15.08843011,0.0001309,53.2153,128.8364,99.4959,260.6181,7.9169e-06,-1.62e-06,0.0,0 STARLINK-3448,1 51728U 22016Q   24200.53275194 -.00000162  00000-0  79169-5 0  9995,2 51728  53.2153 128.8364 0001309  99.4959 260.6181 15.08843011134243,6917.871,95.437,540.642,538.831,0.0
51728.0,STARLINK-3448,PAYLOAD,2024-07-19 01:30:15,15.08833938,0.0001456,53.2155,126.458,109.2691,250.8458,-9.0083e-05,-1.721e-05,0.0,0 STARLINK-3448,1 51728U 22016Q   24201.06267912 -.00001721  00000-0 -90083-4 0  9993,2 51728  53.2155 126.4580 0001456 109.2691 250.8458 15.08833938134329,6917.899,95.438,540.771,538.757,0.0
51728.0,STARLINK-3448,PAYLOAD,2024-07-19 12:37:56,15.08847634,0.0001534,53.2175,124.3752,109.3231,250.7927,9.419e-06,-1.38e-06,0.0,0 STARLINK-3448,1 51728U 22016Q   24201.52635366 -.00000138  00000-0  94190-5 0  9990,2 51728  53.2175 124.3752 0001534 109.3231 250.7927 15.08847634134392,6917.857,95.437,540.783,538.661,0.0
51728.0,STARLINK-3448,PAYLOAD,2024-07-19 22:10:16,15.08833422,0.0001752,53.2178,122.5897,113.0525,247.0652,0.00020942,3.046e-05,0.0,0 STARLINK-3448,1 51728U 22016Q   24201.92380335  .00003046  00000-0  20942-3 0  9999,2 51728  53.2178 122.5897 0001752 113.0525 247.0652 15.08833422133321,6917.9,95.438,540.978,538.553,0.0
